NORAD_CAT_ID,OBJECT_NAME,OBJECT_TYPE,EPOCH,MEAN_MOTION,ECCENTRICITY,INCLINATION,RA_OF_ASC_NODE,ARG_OF_PERICENTER,MEAN_ANOMALY,BSTAR,MEAN_MOTION_DOT,MEAN_MOTION_DDOT,TLE_LINE0,TLE_LINE1,TLE_LINE2,SEMIMAJOR_AXIS,PERIOD,APOGEE,PERIGEE,DECAYED
53170.0,STARLINK-4095,PAYLOAD,2023-04-16 14:23:12,15.08852001,0.0001132,53.2142,229.0233,73.9175,286.1942,0.0019092,0.00030238,0.0,0 STARLINK-4095,1 53170U 22083AQ  23106.59945119  .00030238  00000-0  19092-2 0  9995,2 53170  53.2142 229.0233 0001132  73.9175 286.1942 15.08852001 42328,6917.844,95.437,540.492,538.926,0.0
53170.0,STARLINK-4095,PAYLOAD,2023-04-17 12:38:37,15.08837893,0.0001103,53.2148,224.8602,88.8633,271.2486,0.0018131,0.00028684,0.0,0 STARLINK-4095,1 53170U 22083AQ  23107.52681800  .00028684  00000-0  18131-2 0  9998,2 53170  53.2148 224.8602 0001103  88.8633 271.2486 15.08837893 42464,6917.887,95.438,540.515,538.989,0.0
53170.0,STARLINK-4095,PAYLOAD,2023-04-17 14:14:00,15.08841722,0.0001095,53.2149,224.5629,87.0463,273.0654,0.0023491,0.00037298,0.0,0 STARLINK-4095,1 53170U 22083AQ  23107.59305867  .00037298  00000-0  23491-2 0  9997,2 53170  53.2149 224.5629 0001095  87.0463 273.0654 15.08841722 41847,6917.875,95.437,540.498,538.983,0.0
53170.0,STARLINK-4095,PAYLOAD,2023-04-18 07:43:16,15.0881449,8.53e-05,53.2149,221.293,72.5029,287.6056,0.00066978,0.0001038,0.0,0 STARLINK-4095,1 53170U 22083AQ  23108.32171565  .00010380  00000-0  66978-3 0  9996,2 53170  53.2149 221.2930 0000853  72.5029 287.6056 15.08814490 42585,6917.958,95.439,540.413,539.233,0.0
53170.0,STARLINK-4095,PAYLOAD,2023-04-18 17:15:34,15.0885411,0.0001175,53.2151,219.5089,78.5833,281.5291,0.0017532,0.00027735,0.0,0 STARLINK-4095,1 53170U 22083AQ  23108.71915428  .00027735  00000-0  17532-2 0  9996,2 53170  53.2151 219.5089 0001175  78.5833 281.5291 15.08854110 42644,6917.837,95.437,540.515,538.889,0.0
53170.0,STARLINK-4095,PAYLOAD,2023-04-19 07:34:02,15.08863805,0.0001215,53.2153,216.8312,98.6142,261.4988,0.0010132,0.00015884,0.0,0 STARLINK-4095,1 53170U 22083AQ  23109.31530867  .00015884  00000-0  10132-2 0  9994,2 53170  53.2153 216.8312 0001215  98.6142 261.4988 15.08863805 42108,6917.808,95.436,540.513,538.832,0.0
53170.0,STARLINK-4095,PAYLOAD,2023-04-19 13:55:34,15.08872867,0.0001198,53.2153,215.6413,103.849,256.2635,0.00099548,0.00015605,0.0,0 STARLINK-4095,1 53170U 22083AQ  23109.58026250  .00015605  00000-0  99548-3 0  9999,2 53170  53.2153 215.6413 0001198 103.8490 256.2635 15.08872867 42774,6917.78,95.435,540.474,538.816,0.0
53170.0,STARLINK-4095,PAYLOAD,2023-04-20 05:49:25,15.08847675,0.0001594,53.2156,212.6681,95.3086,264.8088,-0.00017876,-3.133e-05,0.0,0 STARLINK-4095,1 53170U 22083AQ  23110.24265918 -.00003133  00000-0 -17876-3 0  9999,2 53170  53.2156 212.6681 0001594  95.3086 264.8088 15.08847675 42874,6917.857,95.437,540.825,538.619,0.0
53170.0,STARLINK-4095,PAYLOAD,2023-04-20 07:24:48,15.08845337,0.0001479,53.2154,212.3709,98.631,261.4849,-0.00041677,-6.916e-05,0.0,0 STARLINK-4095,1 53170U 22083AQ  23110.30889710 -.00006916  00000-0 -41677-3 0  9996,2 53170  53.2154 212.3709 0001479  98.6310 261.4849 15.08845337 42251,6917.864,95.437,540.752,538.706,0.0
53170.0,STARLINK-4095,PAYLOAD,2023-04-20 12:10:58,15.0884729,0.0001538,53.2158,211.4791,97.8728,262.2439,-0.00014502,-2.596e-05,0.0,0 STARLINK-4095,1 53170U 22083AQ  23110.50761648 -.00002596  00000-0 -14502-3 0  9994,2 53170  53.2158 211.4791 0001538  97.8728 262.2439 15.08847290 42283,6917.858,95.437,540.787,538.659,0.0
53170.0,STARLINK-4095,PAYLOAD,2023-04-21 13:37:08,15.08835141,0.0001778,53.217,206.7225,101.4982,258.6209,0.00016524,2.342e-05,0.0,0 STARLINK-4095,1 53170U 22083AQ  23111.56746313  .00002342  00000-0  16524-3 0  9996,2 53170  53.2170 206.7225 0001778 101.4982 258.6209 15.08835141 42440,6917.895,95.438,540.99,538.53,0.0
53170.0,STARLINK-4095,PAYLOAD,2023-04-21 15:12:31,15.08843163,0.0001331,53.2153,206.4242,97.7459,262.3684,0.00014535,2.026e-05,0.0,0 STARLINK-4095,1 53170U 22083AQ  23111.63370086  .00002026  00000-0  14535-3 0  9993,2 53170  53.2153 206.4242 0001331  97.7459 262.3684 15.08843163 42451,6917.871,95.437,540.656,538.815,0.0
53170.0,STARLINK-4095,PAYLOAD,2023-04-21 23:09:27,15.08843458,0.0001282,53.2152,204.9377,93.0211,267.0927,0.00041958,6.397e-05,0.0,0 STARLINK-4095,1 53170U 22083AQ  23111.96490267  .00006397  00000-0  41958-3 0  9997,2 53170  53.2152 204.9377 0001282  93.0211 267.0927 15.08843458 42507,6917.87,95.437,540.622,538.848,0.0
53170.0,STARLINK-4095,PAYLOAD,2023-04-22 15:03:18,15.0885,0.0001298,53.2143,201.9637,92.1134,268.0007,0.00035962,5.442e-05,0.0,0 STARLINK-4095,1 53170U 22083AQ  23112.62729929  .00005442  00000-0  35962-3 0  9999,2 53170  53.2143 201.9637 0001298  92.1134 268.0007 15.08850000 43236,6917.85,95.437,540.613,538.817,0.0
53170.0,STARLINK-4095,PAYLOAD,2023-04-22 23:00:14,15.08837312,0.0001493,53.2147,200.4777,90.9364,269.1799,-1.6935e-05,-5.57e-06,0.0,0 STARLINK-4095,1 53170U 22083AQ  23112.95850360 -.00000557  00000-0 -16935-4 0  9993,2 53170  53.2147 200.4777 0001493  90.9364 269.1799 15.08837312 43283,6917.889,95.438,540.786,538.721,0.0
53170.0,STARLINK-4095,PAYLOAD,2023-04-23 08:32:34,15.0882755,0.000171,53.2137,198.6924,89.8557,270.2631,-0.0001578,-2.798e-05,0.0,0 STARLINK-4095,1 53170U 22083AQ  23113.35595030 -.00002798  00000-0 -15780-3 0  9993,2 53170  53.2137 198.6924 0001710  89.8557 270.2631 15.08827550 43345,6917.918,95.438,540.966,538.6,0.0
53170.0,STARLINK-4095,PAYLOAD,2023-04-23 14:54:06,15.08836903,0.0001879,53.2132,197.5024,89.211,270.9097,9.1672e-05,1.171e-05,0.0,0 STARLINK-4095,1 53170U 22083AQ  23113.62091025  .00001171  00000-0  91672-4 0  9995,2 53170  53.2132 197.5024 0001879  89.2110 270.9097 15.08836903 43383,6917.89,95.438,541.055,538.455,0.0
53170.0,STARLINK-4095,PAYLOAD,2023-04-24 05:12:34,15.08867775,0.0001335,53.2151,194.8271,86.9723,273.1422,0.00076641,0.0001194,0.0,0 STARLINK-4095,1 53170U 22083AQ  23114.21706140  .00011940  00000-0  76641-3 0  9995,2 53170  53.2151 194.8271 0001335  86.9723 273.1422 15.08867775 43477,6917.795,95.436,540.584,538.737,0.0
53170.0,STARLINK-4095,PAYLOAD,2023-04-24 22:41:47,15.08873963,0.0001201,53.2147,191.5568,81.8147,278.2981,0.00078615,0.00012257,0.0,0 STARLINK-4095,1 53170U 22083AQ  23114.94568991  .00012257  00000-0  78615-3 0  9990,2 53170  53.2147 191.5568 0001201  81.8147 278.2981 15.08873963 43585,6917.777,95.435,540.472,538.811,0.0
53170.0,STARLINK-4095,PAYLOAD,2023-04-25 11:24:53,15.08796045,0.0001373,53.2145,189.1773,105.3941,254.7203,-0.0008375,-0.00013576,0.0,0 STARLINK-4095,1 53170U 22083AQ  23115.47562483 -.00013576  00000-0 -83750-3 0  9992,2 53170  53.2145 189.1773 0001373 105.3941 254.7203 15.08796045 43039,6918.015,95.44,540.83,538.93,0.0
53170.0,STARLINK-4095,PAYLOAD,2023-04-26 11:15:42,15.08834979,0.0001613,53.2159,184.7198,130.8096,229.3036,0.0007761,0.00012084,0.0,0 STARLINK-4095,1 53170U 22083AQ  23116.46923958  .00012084  00000-0  77610-3 0  9999,2 53170  53.2159 184.7198 0001613 130.8096 229.3036 15.08834979 43184,6917.896,95.438,540.877,538.645,0.0
53170.0,STARLINK-4095,PAYLOAD,2023-04-26 16:01:51,15.08841165,0.0001192,53.2143,183.8251,120.8111,239.2999,0.0010388,0.00016284,0.0,0 STARLINK-4095,1 53170U 22083AQ  23116.66796062  .00016284  00000-0  10388-2 0  9999,2 53170  53.2143 183.8251 0001192 120.8111 239.2999 15.08841165 43213,6917.877,95.437,540.566,538.917,0.0
53170.0,STARLINK-4095,PAYLOAD,2023-04-27 09:31:05,15.0885161,0.0001524,53.2152,180.5511,129.7139,230.3988,0.0006297,9.751e-05,0.0,0 STARLINK-4095,1 53170U 22083AQ  23117.39659625  .00009751  00000-0  62970-3 0  9999,2 53170  53.2152 180.5511 0001524 129.7139 230.3988 15.08851610 43950,6917.845,95.437,540.764,538.656,0.0
53170.0,STARLINK-4095,PAYLOAD,2023-04-28 10:57:15,15.08850533,0.0001029,53.2147,175.7962,116.3132,243.7965,4.1314e-05,3.7e-06,0.0,0 STARLINK-4095,1 53170U 22083AQ  23118.45642706  .00000370  00000-0  41314-4 0  9997,2 53170  53.2147 175.7962 0001029 116.3132 243.7965 15.08850533 44110,6917.848,95.437,540.425,539.001,0.0
53170.0,STARLINK-4095,PAYLOAD,2023-04-29 12:23:25,15.0884511,0.0001301,53.2164,171.0399,112.6344,247.4786,-0.00011022,-2.042e-05,0.0,0 STARLINK-4095,1 53170U 22083AQ  23119.51626630 -.00002042  00000-0 -11022-3 0  9995,2 53170  53.2164 171.0399 0001301 112.6344 247.4786 15.08845110 44273,6917.865,95.437,540.63,538.83,0.0
53170.0,STARLINK-4095,PAYLOAD,2023-04-30 12:14:13,15.08841215,0.0001092,53.2159,166.5771,88.3026,271.8091,8.291e-06,-1.56e-06,0.0,0 STARLINK-4095,1 53170U 22083AQ  23120.50987302 -.00000156  00000-0  82910-5 0  9991,2 53170  53.2159 166.5771 0001092  88.3026 271.8091 15.08841215 44422,6917.877,95.437,540.497,538.986,0.0
53170.0,STARLINK-4095,PAYLOAD,2023-05-01 10:29:37,15.08835207,0.0001322,53.2172,162.4114,82.132,277.9822,2.8107e-05,1.59e-06,0.0,0 STARLINK-4095,1 53170U 22083AQ  23121.43723895  .00000159  00000-0  28107-4 0  9998,2 53170  53.2172 162.4114 0001322  82.1320 277.9822 15.08835207 44566,6917.895,95.438,540.675,538.845,0.0
53170.0,STARLINK-4095,PAYLOAD,2023-05-01 15:15:46,15.08829731,0.0001273,53.2173,161.5187,84.25,275.8637,0.00015624,2.199e-05,0.0,0 STARLINK-4095,1 53170U 22083AQ  23121.63595979  .00002199  00000-0  15624-3 0  9995,2 53170  53.2173 161.5187 0001273  84.2500 275.8637 15.08829731 43964,6917.912,95.438,540.657,538.896,0.0
53170.0,STARLINK-4095,PAYLOAD,2023-05-02 02:23:28,15.08841733,0.0001151,53.2168,159.4363,96.5245,263.5878,0.00012643,1.725e-05,0.0,0 STARLINK-4095,1 53170U 22083AQ  23122.09963201  .00001725  00000-0  12643-3 0  9995,2 53170  53.2168 159.4363 0001151  96.5245 263.5878 15.08841733 44662,6917.875,95.437,540.536,538.944,0.0
53170.0,STARLINK-4095,PAYLOAD,2023-05-02 08:45:00,15.08850985,0.0001098,53.2157,158.2489,96.2884,263.8233,0.00015032,2.106e-05,0.0,0 STARLINK-4095,1 53170U 22083AQ  23122.36458510  .00002106  00000-0  15032-3 0  9996,2 53170  53.2157 158.2489 0001098  96.2884 263.8233 15.08850985 44704,6917.847,95.437,540.471,538.952,0.0
